ONEWEB-0544             
1 55144U 23004E   23059.33334491  .00096411  00000+0  17501-1 0  9992
2 55144  86.6230 264.2061 0015326  57.9091 321.6496 14.65574515  7455
ONEWEB-0544             
1 55144U 23004E   23059.58334491 -.00008678  00000+0 -16016-2 0  9990
2 55144  86.6229 264.1031 0015353  57.1071 200.6202 14.65667462  1302
ONEWEB-0544             
1 55144U 23004E   23059.94415098  .00001088  00000+0  19575-3 0  9993
2 55144  86.6225 263.9542 0015305  55.4400 304.8255 14.65650436  7546
ONEWEB-0544             
1 55144U 23004E   23060.89997981  .00001525  00000+0  27597-3 0  9994
2 55144  86.6226 263.5604 0015258  52.5520 307.7079 14.65653733  7684
ONEWEB-0544             
1 55144U 23004E   23061.78753629  .00004723  00000+0  86333-3 0  9998
2 55144  86.6226 263.1946 0015206  50.0078 310.2468 14.65661487  7814
ONEWEB-0544             
1 55144U 23004E   23062.40199308  .00002086  00000+0  37902-3 0  9994
2 55144  86.6225 262.9414 0015146  48.1363 312.1140 14.65662420  7904
ONEWEB-0544             
1 55144U 23004E   23062.53853893  .00002126  00000+0  38640-3 0  9999
2 55144  86.6224 262.8851 0015131  47.7107 312.5386 14.65663045  7924
ONEWEB-0544             
1 55144U 23004E   23062.94818366  .00001958  00000+0  35555-3 0  9994
2 55144  86.6224 262.7163 0015095  46.5195 313.7271 14.65660065  7983
